IRIDIUM 116             
1 43072U 17083C   24313.85712031  .00001086  00000+0  38057-3 0  9995
2 43072  86.4020 206.6065 0002093  75.0341 285.1086 14.34214648360272
IRIDIUM 130             
1 43073U 17083D   24314.45332413  .00000655  00000+0  22677-3 0  9997
2 43073  86.4034 206.5751 0002267  82.1938 277.9515 14.34216154360307
IRIDIUM 151             
1 43074U 17083E   24314.00934116  .00000016  00000+0 -14476-5 0  9999
2 43074  86.4029 206.5869 0002065  83.2088 276.9342 14.34218303360266
IRIDIUM 134             
1 43075U 17083F   24313.83809083  .00000780  00000+0  27142-3 0  9993
2 43075  86.4022 206.6588 0002160  76.5620 283.5816 14.34213850360208
IRIDIUM 137             
1 43076U 17083G   24314.12985178  .00001010  00000+0  35350-3 0  9994
2 43076  86.4028 206.6179 0001605  69.1433 290.9934 14.34219239360316
IRIDIUM 141             
1 43077U 17083H   24314.47235182  .00000677  00000+0  23481-3 0  9996
2 43077  86.4024 206.3392 0002210  87.1049 273.0400 14.34218061360360
IRIDIUM 153             
1 43078U 17083J   24314.35474443  .00000030  00000+0  37015-5 0  9992
2 43078  86.4009 174.9202 0002288  98.6070 261.5385 14.34207578361456
IRIDIUM 131             
1 43079U 17083K   24314.45965202  .00001226  00000+0  43084-3 0  9991
2 43079  86.4008 206.4882 0001874 106.5775 253.5627 14.34216729360291
